{
  "type": "FeatureCollection",
  "features": [
    {
      "type": "Feature",
      "properties": {
        "norad_id": 30892,
        "name": "FENGYUN 1C DEB",
        "group": "fengyun-1c-debris",
        "lat": -79.80029997385307,
        "lon": -6.3956887880989886,
        "alt_km": 824.5315450798098,
        "timestamp": "2025-12-05T19:30:25.844957+00:00",
        "meta_object_name": "FENGYUN 1C DEB",
        "meta_object_id": "1999-025AYE",
        "meta_epoch": "2025-12-02T15:45:32.268672",
        "meta_mean_motion": 14.18893658,
        "meta_eccentricity": 0.00376287,
        "meta_inclination": 99.6617,
        "meta_ra_of_asc_node": 278.9389,
        "meta_arg_of_pericenter": 217.7485,
        "meta_mean_anomaly": 142.1047,
        "meta_ephemeris_type": 0,
        "meta_classification_type": "U",
        "meta_norad_cat_id": 30892,
        "meta_element_set_no": 999,
        "meta_rev_at_epoch": 64160,
        "meta_bstar": 0.00053864396,
        "meta_mean_motion_dot": 1.078e-05,
        "meta_mean_motion_ddot": 0,
        "tle_line1": "1 30892U 99025AYE 25336.65662348  .00001078  00000+0  53864-3 0  9990",
        "tle_line2": "2 30892  99.6617 278.9389 0037628 217.7485 142.1047 14.18893658641607"
      },
      "geometry": {
        "type": "Point",
        "coordinates": [
          -6.3956887880989886,
          -79.80029997385307
        ]
      }
    },
    {
      "type": "Feature",
      "properties": {
        "norad_id": 30893,
        "name": "FENGYUN 1C DEB",
        "group": "fengyun-1c-debris",
        "lat": -72.75986575414997,
        "lon": 159.80315494432563,
        "alt_km": 1098.5111818060932,
        "timestamp": "2025-12-05T19:30:25.844967+00:00",
        "meta_object_name": "FENGYUN 1C DEB",
        "meta_object_id": "1999-025AYF",
        "meta_epoch": "2025-12-02T20:30:20.002752",
        "meta_mean_motion": 13.94024671,
        "meta_eccentricity": 0.03097292,
        "meta_inclination": 98.2578,
        "meta_ra_of_asc_node": 5.0563,
        "meta_arg_of_pericenter": 120.5117,
        "meta_mean_anomaly": 53.6004,
        "meta_ephemeris_type": 0,
        "meta_classification_type": "U",
        "meta_norad_cat_id": 30893,
        "meta_element_set_no": 999,
        "meta_rev_at_epoch": 94747,
        "meta_bstar": 0.00087162992,
        "meta_mean_motion_dot": 1.681e-05,
        "meta_mean_motion_ddot": 0,
        "tle_line1": "1 30893U 99025AYF 25336.85439818  .00001681  00000+0  87163-3 0  9996",
        "tle_line2": "2 30893  98.2578   5.0563 0309729 120.5117  53.6004 13.94024671947476"
      },
      "geometry": {
        "type": "Point",
        "coordinates": [
          159.80315494432563,
          -72.75986575414997
        ]
      }
    },
    {
      "type": "Feature",
      "properties": {
        "norad_id": 30895,
        "name": "FENGYUN 1C DEB",
        "group": "fengyun-1c-debris",
        "lat": -65.18427013680508,
        "lon": 67.65599556539689,
        "alt_km": 926.7934454154711,
        "timestamp": "2025-12-05T19:30:25.844977+00:00",
        "meta_object_name": "FENGYUN 1C DEB",
        "meta_object_id": "1999-025AYH",
        "meta_epoch": "2025-12-05T03:22:16.513824",
        "meta_mean_motion": 14.31515354,
        "meta_eccentricity": 0.02179314,
        "meta_inclination": 98.7208,
        "meta_ra_of_asc_node": 47.5933,
        "meta_arg_of_pericenter": 146.3472,
        "meta_mean_anomaly": 282.8667,
        "meta_ephemeris_type": 0,
        "meta_classification_type": "U",
        "meta_norad_cat_id": 30895,
        "meta_element_set_no": 999,
        "meta_rev_at_epoch": 97684,
        "meta_bstar": 0.00099763926,
        "meta_mean_motion_dot": 3.395e-05,
        "meta_mean_motion_ddot": 0,
        "tle_line1": "1 30895U 99025AYH 25339.14046891  .00003395  00000+0  99764-3 0  9992",
        "tle_line2": "2 30895  98.7208  47.5933 0217931 146.3472 282.8667 14.31515354976847"
      },
      "geometry": {
        "type": "Point",
        "coordinates": [
          67.65599556539689,
          -65.18427013680508
        ]
      }
    },
    {
      "type": "Feature",
      "properties": {
        "norad_id": 30898,
        "name": "FENGYUN 1C DEB",
        "group": "fengyun-1c-debris",
        "lat": 5.211298344597844,
        "lon": -110.93153461579375,
        "alt_km": 523.4810183656991,
        "timestamp": "2025-12-05T19:30:25.844987+00:00",
        "meta_object_name": "FENGYUN 1C DEB",
        "meta_object_id": "1999-025AYL",
        "meta_epoch": "2025-12-01T23:52:01.976448",
        "meta_mean_motion": 15.20079673,
        "meta_eccentricity": 0.00399108,
        "meta_inclination": 99.0257,
        "meta_ra_of_asc_node": 245.335,
        "meta_arg_of_pericenter": 146.5036,
        "meta_mean_anomaly": 213.873,
        "meta_ephemeris_type": 0,
        "meta_classification_type": "U",
        "meta_norad_cat_id": 30898,
        "meta_element_set_no": 999,
        "meta_rev_at_epoch": 66208,
        "meta_bstar": 0.00270501,
        "meta_mean_motion_dot": 0.00060002,
        "meta_mean_motion_ddot": 0,
        "tle_line1": "1 30898U 99025AYL 25335.99446732  .00060002  00000+0  27050-2 0  9998",
        "tle_line2": "2 30898  99.0257 245.3350 0039910 146.5036 213.8730 15.20079673662087"
      },
      "geometry": {
        "type": "Point",
        "coordinates": [
          -110.93153461579375,
          5.211298344597844
        ]
      }
    },
    {
      "type": "Feature",
      "properties": {
        "norad_id": 30903,
        "name": "FENGYUN 1C DEB",
        "group": "fengyun-1c-debris",
        "lat": -70.10860039921859,
        "lon": 18.129996881298588,
        "alt_km": 963.5210230683606,
        "timestamp": "2025-12-05T19:30:25.844998+00:00",
        "meta_object_name": "FENGYUN 1C DEB",
        "meta_object_id": "1999-025AYR",
        "meta_epoch": "2025-12-03T09:36:42.765408",
        "meta_mean_motion": 13.97589704,
        "meta_eccentricity": 0.00968077,
        "meta_inclination": 99.3708,
        "meta_ra_of_asc_node": 222.8235,
        "meta_arg_of_pericenter": 118.3533,
        "meta_mean_anomaly": 242.7433,
        "meta_ephemeris_type": 0,
        "meta_classification_type": "U",
        "meta_norad_cat_id": 30903,
        "meta_element_set_no": 999,
        "meta_rev_at_epoch": 68574,
        "meta_bstar": 0.00045958219,
        "meta_mean_motion_dot": 6.28e-06,
        "meta_mean_motion_ddot": 0,
        "tle_line1": "1 30903U 99025AYR 25337.40049497  .00000628  00000+0  45958-3 0  9996",
        "tle_line2": "2 30903  99.3708 222.8235 0096807 118.3533 242.7433 13.97589704685749"
      },
      "geometry": {
        "type": "Point",
        "coordinates": [
          18.129996881298588,
          -70.10860039921859
        ]
      }
    },
    {
      "type": "Feature",
      "properties": {
        "norad_id": 30905,
        "name": "FENGYUN 1C DEB",
        "group": "fengyun-1c-debris",
        "lat": 75.81618124095097,
        "lon": -86.53138751806922,
        "alt_km": 784.2635372158202,
        "timestamp": "2025-12-05T19:30:25.845008+00:00",
        "meta_object_name": "FENGYUN 1C DEB",
        "meta_object_id": "1999-025AYT",
        "meta_epoch": "2025-12-05T00:24:15.374304",
        "meta_mean_motion": 14.1778042,
        "meta_eccentricity": 0.00573453,
        "meta_inclination": 98.8903,
        "meta_ra_of_asc_node": 54.4068,
        "meta_arg_of_pericenter": 102.6241,
        "meta_mean_anomaly": 258.1355,
        "meta_ephemeris_type": 0,
        "meta_classification_type": "U",
        "meta_norad_cat_id": 30905,
        "meta_element_set_no": 999,
        "meta_rev_at_epoch": 96013,
        "meta_bstar": 0.0035514614,
        "meta_mean_motion_dot": 7.323e-05,
        "meta_mean_motion_ddot": 0,
        "tle_line1": "1 30905U 99025AYT 25339.01684461  .00007323  00000+0  35515-2 0  9999",
        "tle_line2": "2 30905  98.8903  54.4068 0057345 102.6241 258.1355 14.17780420960135"
      },
      "geometry": {
        "type": "Point",
        "coordinates": [
          -86.53138751806922,
          75.81618124095097
        ]
      }
    },
    {
      "type": "Feature",
      "properties": {
        "norad_id": 30912,
        "name": "FENGYUN 1C DEB",
        "group": "fengyun-1c-debris",
        "lat": 37.18378274652827,
        "lon": 173.2465636204774,
        "alt_km": 592.3240570041444,
        "timestamp": "2025-12-05T19:30:25.845018+00:00",
        "meta_object_name": "FENGYUN 1C DEB",
        "meta_object_id": "1999-025AZA",
        "meta_epoch": "2025-12-03T12:30:12.813696",
        "meta_mean_motion": 14.88965288,
        "meta_eccentricity": 0.00592375,
        "meta_inclination": 98.9966,
        "meta_ra_of_asc_node": 177.5478,
        "meta_arg_of_pericenter": 127.2507,
        "meta_mean_anomaly": 233.4131,
        "meta_ephemeris_type": 0,
        "meta_classification_type": "U",
        "meta_norad_cat_id": 30912,
        "meta_element_set_no": 999,
        "meta_rev_at_epoch": 99267,
        "meta_bstar": 0.0019833525,
        "meta_mean_motion_dot": 0.00019237,
        "meta_mean_motion_ddot": 0,
        "tle_line1": "1 30912U 99025AZA 25337.52098164  .00019237  00000+0  19834-2 0  9993",
        "tle_line2": "2 30912  98.9966 177.5478 0059237 127.2507 233.4131 14.88965288992672"
      },
      "geometry": {
        "type": "Point",
        "coordinates": [
          173.2465636204774,
          37.18378274652827
        ]
      }
    }
  ]
}